[{"OBJECT_NAME":"LUR-1","OBJECT_ID":"2024-149AQ","EPOCH":"2026-03-09T19:05:45.284064","MEAN_MOTION":15.28658648,"ECCENTRICITY":0.00027765,"INCLINATION":97.379,"RA_OF_ASC_NODE":148.4255,"ARG_OF_PERICENTER":309.1571,"MEAN_ANOMALY":50.9421,"EPHEMERIS_TYPE":0,"CLASSIFICATION_TYPE":"U","NORAD_CAT_ID":60506,"ELEMENT_SET_NO":999,"REV_AT_EPOCH":8678,"BSTAR":0.0003298462,"MEAN_MOTION_DOT":9.121e-5,"MEAN_MOTION_DDOT":0},{"OBJECT_NAME":"STARLINK-32892","OBJECT_ID":"2025-024Q","EPOCH":"2026-03-09T02:23:47.756256","MEAN_MOTION":15.27584036,"ECCENTRICITY":1.473e-5,"INCLINATION":43.0009,"RA_OF_ASC_NODE":328.8735,"ARG_OF_PERICENTER":240.2675,"MEAN_ANOMALY":119.8162,"EPHEMERIS_TYPE":0,"CLASSIFICATION_TYPE":"U","NORAD_CAT_ID":62893,"ELEMENT_SET_NO":999,"REV_AT_EPOCH":6217,"BSTAR":0.0010488869,"MEAN_MOTION_DOT":0.00028717,"MEAN_MOTION_DDOT":0}]
